INTELSAT 26 (IS-26)     
1 24732U 97007A   22040.26799247 -.00000200  00000+0  00000+0 0  9996
2 24732   9.8777  39.5595 0011540 271.6785 281.3819  0.98909351 91322
GALAXY 25 (G-25)        
1 24812U 97026A   22040.14980042 -.00000003  00000+0  00000+0 0  9999
2 24812   3.3729  84.9479 0003812 216.9214 317.3595  1.00270976 90434
INTELSAT 5 (IS-5)       
1 24916U 97046A   22039.68742273  .00000122  00000+0  00000+0 0  9996
2 24916   6.9542  61.9379 0002985 196.7138 340.4106  1.00126817 89689
GALAXY 11 (G-11)        
1 26038U 99071A   22039.60449025 -.00000162  00000+0  00000+0 0  9999
2 26038   2.6886  89.4582 0000628 118.5943  55.1116  1.00272093 81141
INTELSAT 9 (IS-9)       
1 26451U 00043A   22040.09686874 -.00000288  00000+0  00000+0 0  9998
2 26451   6.9419  62.1163 0002528 243.6287 178.2774  1.00271296 78916
INTELSAT 1R (IS-1R)     
1 26608U 00072A   22039.94118583 -.00000139  00000+0  00000+0 0  9998
2 26608   4.1237  81.2206 0001484 356.2612 197.4297  1.00272000 77715
INTELSAT 10 (IS-10)     
1 26766U 01019A   22040.51117118  .00000034  00000+0  00000+0 0  9996
2 26766   5.2767  74.4570 0003217 244.2780 182.6455  1.00271045 76007
INTELSAT 901 (IS-901)   
1 26824U 01024A   22039.99910709 -.00000200  00000+0  00000+0 0  9990
2 26824   0.0510 272.4587 0001059  46.4229 152.3461  1.00271289 75652
INTELSAT 902 (IS-902)   
1 26900U 01039A   22040.47408916 -.00000281  00000+0  00000+0 0  9997
2 26900   2.0851  90.4372 0002745 232.1208 297.5503  1.00271910 74841
INTELSAT 904 (IS-904)   
1 27380U 02007A   22039.97581146 -.00000213  00000+0  00000+0 0  9991
2 27380   2.9175  87.3266 0003223 239.2592 134.2221  1.00272282 73155
DIRECTV 5 (TEMPO 1)     
1 27426U 02023A   22040.51864309 -.00000053  00000+0  00000+0 0  9999
2 27426   0.8070  94.7934 0003517 231.7413 249.6051  1.00272081 72378
INTELSAT 905 (IS-905)   
1 27438U 02027A   22039.97677086 -.00000184  00000+0  00000+0 0  9993
2 27438   2.7397  88.0885 0002785 231.3233 146.7556  1.00271823 72030
GALAXY 3C (G-3C)        
1 27445U 02030A   22040.46510567 -.00000147  00000+0  00000+0 0  9990
2 27445   0.0262 311.9172 0001582  17.3567 242.6169  1.00270304 72021
INTELSAT 906 (IS-906)   
1 27513U 02041A   22040.42507251  .00000016  00000+0  00000+0 0  9994
2 27513   1.7520  92.0189 0003540 244.9970  19.6221  1.00272167 71040
GALAXY 12 (G-12)        
1 27715U 03013B   22040.54621448  .00000059  00000+0  00000+0 0  9993
2 27715   2.9532  86.9018 0002217 242.9019 237.4180  1.00270498 69074
GALAXY 23 (G-23)        
1 27854U 03034A   22039.66513792  .00000016  00000+0  00000+0 0  9996
2 27854   0.0640 267.6292 0002892  54.7867 294.7547  1.00271468 67808
GALAXY 13 (HORIZONS 1)  
1 27954U 03044A   22040.54717471  .00000052  00000+0  00000+0 0  9997
2 27954   0.0223  93.0959 0001435 113.2916   3.1600  1.00269425 67223
INTELSAT 10-02          
1 28358U 04022A   22039.98148064 -.00000009  00000+0  00000+0 0  9998
2 28358   0.0576 271.6262 0000653  25.1462 194.5795  1.00271575 64699
XM-3 (RHYTHM)           
1 28626U 05008A   22040.49510309 -.00000203  00000+0  00000+0 0  9990
2 28626   0.0082  87.8419 0000731 342.4874 162.3351  1.00275397 62133
DIRECTV 8               
1 28659U 05019A   22040.47200153  .00000004  00000+0  00000+0 0  9997
2 28659   0.0143 106.9888 0003108 215.3693 228.0324  1.00273843 61254
GALAXY 28 (G-28)        
1 28702U 05022A   22040.49234478 -.00000182  00000+0  00000+0 0  9997
2 28702   0.0071 340.5934 0001858   3.1603 244.0138  1.00272279 60897
GALAXY 14 (G-14)        
1 28790U 05030A   22039.84466949  .00000157  00000+0  00000+0 0  9991
2 28790   0.9398  93.5967 0002108 221.1910 161.0737  1.00270890 60371
GALAXY 15 (G-15)        
1 28884U 05041A   22040.54343007  .00000082  00000+0  00000+0 0  9992
2 28884   0.0375 278.0040 0001813  45.1136 239.1067  1.00273741 59671
SPACEWAY 2              
1 28903U 05046B   22040.14721678  .00000105  00000+0  00000+0 0  9995
2 28903   1.6103  89.3285 0000465   8.8261 315.1251  1.00272478 59564
GALAXY 16 (G-16)        
1 29236U 06023A   22040.52776510 -.00000123  00000+0  00000+0 0  9999
2 29236   0.0156 114.5863 0002857 206.2561 269.7059  1.00272169 57332
DIRECTV 9S              
1 29494U 06043A   22040.52655413 -.00000110  00000+0  00000+0 0  9991
2 29494   0.0175 158.3292 0002861 166.2595 263.3249  1.00272614 56175
XM-4 (BLUES)            
1 29520U 06049A   22040.53135045 -.00000020  00000+0  00000+0 0  9992
2 29520   0.0607 283.9271 0002145  28.7258 262.9782  1.00274517 56069
GALAXY 17 (G-17)        
1 31307U 07016B   22040.17654493 -.00000171  00000+0  00000+0 0  9993
2 31307   0.0117  61.0912 0003285 261.0628 149.6170  1.00271594 54148
DIRECTV 10              
1 31862U 07032A   22040.16915036 -.00000100  00000+0  00000+0 0  9991
2 31862   0.0112 255.5333 0000088 139.3898  62.3814  1.00272433 53474
SPACEWAY 3              
1 32018U 07036A   22040.46510567 -.00000148  00000+0  00000+0 0  9994
2 32018   0.0033 268.9415 0000308  61.8054 241.2413  1.00274163 53191
INTELSAT 11 (IS-11)     
1 32253U 07044B   22040.47548465 -.00000265  00000+0  00000+0 0  9993
2 32253   0.0089 106.3877 0001948 217.7969 303.5162  1.00271312 52597
HORIZONS 2              
1 32388U 07063B   22040.07827337 -.00000180  00000+0  00000+0 0  9993
2 32388   0.0123  62.0424 0002919 255.8961 294.2108  1.00275768 51948
DIRECTV 11              
1 32729U 08013A   22040.52776514 -.00000123  00000+0  00000+0 0  9995
2 32729   0.0014 165.3677 0000191 192.9170 232.0965  1.00273720 51000
GALAXY 18 (G-18)        
1 32951U 08024A   22040.15691052  .00000028  00000+0  00000+0 0  9999
2 32951   0.0154 103.9549 0003120 221.7162 107.0198  1.00269782 50152
INTELSAT 25 (IS-25)     
1 33153U 08034A   22039.97537536 -.00000221  00000+0  00000+0 0  9995
2 33153   0.0117 149.7789 0003108 188.2085 120.6707  1.00272668 49700
GALAXY 19 (G-19)        
1 33376U 08045A   22040.01091222 -.00000137  00000+0  00000+0 0  9994
2 33376   0.0088 122.6912 0003283 190.8713  92.4286  1.00271877 48903
FM-5                    
1 35493U 09034A   22039.60579854 -.00000198  00000+0  00000+0 0  9997
2 35493   0.0168  85.3463 0000372 345.0895 200.1627  1.00271371 30706
INTELSAT 14 (IS-14)     
1 36097U 09064A   22040.09354958 -.00000271  00000+0  00000+0 0  9994
2 36097   0.0172 101.4597 0002592 220.7015 165.6586  1.00272057 44761
INTELSAT 15 (IS-15)     
1 36106U 09067A   22039.71157448 -.00000183  00000+0  00000+0 0  9992
2 36106   0.0124  31.5429 0002375 293.4805 155.0544  1.00271454 25293
DIRECTV 12              
1 36131U 09075A   22040.48325178 -.00000100  00000+0  00000+0 0  9991
2 36131   0.0373 261.1955 0000309  50.3709 259.1957  1.00274039 44455
INTELSAT 16 (IS-16)     
1 36397U 10006A   22040.52073682 -.00000241  00000+0  00000+0 0  9992
2 36397   0.0091  59.8803 0002000 266.5796 284.3651  1.00271337 43781
XM-5                    
1 37185U 10053A   22039.67078612 -.00000020  00000+0  00000+0 0  9997
2 37185   0.0213 153.3482 0000760 292.0609 179.5920  1.00270419 41540
INTELSAT 17 (IS-17)     
1 37238U 10065B   22039.63615046  .00000000  00000+0  00000+0 0  9990
2 37238   0.0187 140.8193 0002606 194.3950  98.4842  1.00271957 37290
INTELSAT NEW DAWN       
1 37392U 11016A   22040.22271427  .00000159  00000+0  00000+0 0  9991
2 37392   0.0162 145.1778 0001192  57.7169  49.3347  1.00272978 39587
INTELSAT 18 (IS-18)     
1 37834U 11056A   22040.51316516  .00000056  00000+0  00000+0 0  9993
2 37834   0.0212  14.3778 0002146 312.1713 177.7469  1.00274822 37910
INTELSAT 22 (IS-22)     
1 38098U 12011A   22040.03591146 -.00000056  00000+0  00000+0 0  9990
2 38098   0.0162  88.3041 0002736 235.0727 260.7373  1.00272112 36112
INTELSAT 19 (IS-19)     
1 38356U 12030A   22040.50059175 -.00000053  00000+0  00000+0 0  9998
2 38356   0.0260 100.1401 0003024 230.7431 154.8720  1.00272767 35581
INTELSAT 20 (IS-20)     
1 38740U 12043A   22040.49772531 -.00000021  00000+0  00000+0 0  9990
2 38740   0.0188 115.0348 0001546  62.1115 210.0801  1.00271035 34902
INTELSAT 21 (IS-21)     
1 38749U 12045A   22039.53968711 -.00000283  00000+0  00000+0 0  9991
2 38749   0.0181  96.6094 0002127 220.9704 317.3009  1.00271116 34596
INTELSAT 23 (IS-23)     
1 38867U 12057A   22040.09354958 -.00000282  00000+0  00000+0 0  9999
2 38867   0.0428 264.6158 0001962  48.8017 166.3858  1.00272380 34171
FM-6                    
1 39360U 13058A   22039.66971274 -.00000014  00000+0  00000+0 0  9990
2 39360   0.0299 260.4681 0000381 314.3403  48.8457  1.00269185 30124
INTELSAT 30 (IS-30)     
1 40271U 14062A   22040.17408105 -.00000148  00000+0  00000+0 0  9993
2 40271   0.0116  96.5627 0002075  28.5525 341.7105  1.00270787 26832
DIRECTV 14              
1 40333U 14078B   22039.62613736 -.00000123  00000+0  00000+0 0  9998
2 40333   0.0226 101.5254 0000551 118.5507  44.7927  1.00272008 26125
DIRECTV 15              
1 40663U 15026A   22039.68114306 -.00000100  00000+0  00000+0 0  9998
2 40663   0.0177  99.6070 0000417 151.2401  30.2249  1.00269623 24525
SKY MEXICO-1            
1 40664U 15026B   22039.53550062 -.00000233  00000+0  00000+0 0  9993
2 40664   0.0160  87.0892 0002159 239.1061 286.3974  1.00271679 24594
INTELSAT 34 (IS-34)     
1 40874U 15039A   22040.43369771 -.00000282  00000+0  00000+0 0  9990
2 40874   0.0313 298.5668 0000794 281.6359  19.9003  1.00270105 23698
INTELSAT 31 (IS-31)     
1 41581U 16035A   22039.96272873 -.00000148  00000+0  00000+0 0  9996
2 41581   0.0317 250.2414 0002632 314.3104 185.9774  1.00271791 20752
INTELSAT 36 (IS-36)     
1 41747U 16053A   22039.85182139 -.00000022  00000+0  00000+0 0  9994
2 41747   0.0086  41.5765 0000729 280.3863 192.0984  1.00272238 20016
INTELSAT 33E (IS-33E)   
1 41748U 16053B   22039.99360397  .00000052  00000+0  00000+0 0  9996
2 41748   0.0338 333.3789 0001775 337.4013 245.9588  1.00270416 20281
INTELSAT 32E (IS-32E)   
1 41945U 17007B   22040.47539743 -.00000266  00000+0  00000+0 0  9991
2 41945   0.0153  99.2361 0000223  93.8465  74.3918  1.00274941 18319
INTELSAT 35E (IS-35E)   
1 42818U 17041A   22040.47714181 -.00000235  00000+0  00000+0 0  9996
2 42818   0.0419 258.2500 0001732  40.1453 338.3725  1.00273902 16878
INTELSAT 37E (IS-37E)   
1 42950U 17059A   22040.40858826 -.00000138  00000+0  00000+0 0  9992
2 42950   0.0165 117.4292 0002663 197.0398 314.0632  1.00271797 16116
AZERSPACE 2 (IS-38)     
1 43632U 18074A   22039.84711160  .00000139  00000+0  00000+0 0  9993
2 43632   0.0163 101.4672 0001487 216.2800 171.2095  1.00271809 12534
HORIZONS 3E             
1 43633U 18074B   22040.11438255 -.00000028  00000+0  00000+0 0  9995
2 43633   0.0028 174.0653 0000771 133.1189  42.1478  1.00270719 12385
AT&T T-16               
1 44333U 19034A   22039.67450672 -.00000112  00000+0  00000+0 0  9990
2 44333   0.0470 274.1593 0000794 294.9399  71.5777  1.00269277  9698
INTELSAT 39 (IS-39)     
1 44476U 19049B   22039.99404007  .00000036  00000+0  00000+0 0  9994
2 44476   0.0141 102.7063 0001154  67.7925  28.3219  1.00270938  9205
GALAXY 30               
1 46114U 20056C   22040.54801001  .00000040  00000+0  00000+0 0  9998
2 46114   0.0111 118.6693 0001883 203.7116 249.4837  1.00272281  5471
